ORBCOMM FM37            
1 33064U 08031E   24267.20134053  .00004369  00000+0  63445-3 0  9993
2 33064  48.4390 171.0077 0005653 307.7978 182.5224 14.77505895874856
ORBCOMM FM40            
1 33065U 08031F   24266.92591203  .00004229  00000+0  59281-3 0  9994
2 33065  48.4410 160.2627 0006739 316.8219 147.3392 14.79092965874559
VESSELSAT 1             
1 37840U 11058C   24267.19325209  .00000527  00000+0  14320-3 0  9995
2 37840  19.9614 269.3310 0013826 129.6796 230.4829 14.11218162668777
ORBCOMM FM109           
1 40086U 14040A   24266.88581611  .00001939  00000+0  46223-3 0  9996
2 40086  47.0022 197.8849 0001686 185.9685 174.1181 14.57199978542064
ORBCOMM FM107           
1 40087U 14040B   24266.92050899  .00001606  00000+0  38966-3 0  9997
2 40087  47.0046 198.7133 0000815 143.6450 216.4491 14.57149392542149
ORBCOMM FM106           
1 40088U 14040C   24266.69232437  .00002755  00000+0  50904-3 0  9994
2 40088  47.0613  42.8393 0018683 263.8691  96.0071 14.67782893544150
ORBCOMM FM111           
1 40089U 14040D   24266.77019316  .00005128  00000+0  64244-3 0  9992
2 40089  47.0027 287.2596 0032978 353.1173   6.9265 14.83070698550480
ORBCOMM FM104           
1 40090U 14040E   24266.89633039  .00001781  00000+0  44204-3 0  9996
2 40090  47.0043 229.2922 0016426  61.8388 298.4154 14.55605037541665
